#aV2015  5 20  0  0  0.00000000     288 DD+AD WGS84 FIT  NGA
## 1845 259200.00000000   300.00000000 57162 0.0000000000000
+   31     1  2  3  4  5  6  7  9 10 11 12 13 14 15 16 17 18
+         19 20 21 22 23 24 25 26 27 28 29 30 31 32  0  0  0
+          0  0  0  0  0  0  0  0  0  0  0  0  0  0  0  0  0
+          0  0  0  0  0  0  0  0  0  0  0  0  0  0  0  0  0
+          0  0  0  0  0  0  0  0  0  0  0  0  0  0  0  0  0
++         2  2  2  2  2  2  2  2  2  2  2  2  2  2  2  2  2
++         2  2  2  2  2  2  2  2  2  2  2  2  2  2  0  0  0
++         0  0  0  0  0  0  0  0  0  0  0  0  0  0  0  0  0
++         0  0  0  0  0  0  0  0  0  0  0  0  0  0  0  0  0
++         0  0  0  0  0  0  0  0  0  0  0  0  0  0  0  0  0
%c cc cc ccc ccc cccc cccc cccc cccc ccccc ccccc ccccc ccccc
%c cc cc ccc ccc cccc cccc cccc cccc ccccc ccccc ccccc ccccc
%f  0.0000000  0.000000000  0.00000000000  0.000000000000000
%f  0.0000000  0.000000000  0.00000000000  0.000000000000000
%i    0    0    0    0      0      0      0      0         0
%i    0    0    0    0      0      0      0      0         0
/*      NGA, ST. LOUIS,MO.                                  
/*   EPHEMERIS COMPUTED FROM  1 DAYS OF DATA                
/*   EPOCHA SMOOTHER                                       
/* CCCCCCCCCCCCCCCCCCCCCCCCCCCCCCCCCCCCCCCCCCCCCCCCCCCCCCCCC
*  2015  5 20  6  5  0.00000000
P  1   1753.797185  15305.575319 -21670.974250     -5.363038                    
V  1 -26233.164889   7964.025023   3696.172526      0.004635                    
P  2  18582.039581 -15302.329079  11071.030597    566.922833                    
V  2  13994.938156  -1632.518772 -27079.775703      0.023186                    
P  3  10566.319098  21035.163139 -12249.454614    331.518729                    
V  3 -13211.568030  -8629.601330 -26220.336256      0.095524                    
P  4  -8261.820796  17254.022517 -18639.554357    -15.449363                    
V  4 -22507.553218   5811.608198  15894.853749     -0.015041                    
P  5   8276.271603 -13271.673726  21402.826974   -239.460457                    
V  5  20759.860222  17832.925402   3206.511619      0.045899                    
P  6  25650.338400  -6103.903734  -3177.921132    164.830278                    
V  6  -2970.338685   3892.460704 -31438.714370      0.091402                    
P  7  16548.929010   8709.168500  19106.432788    463.298034                    
V  7 -22594.372497   7836.529021  15718.300654      0.024824                    
P  9   8816.736238  17963.571245  17446.912765   -158.761387                    
V  9  -6199.517339  21372.837599 -18884.136248     -0.060497                    
P 10  21456.209592   5066.719330  14720.791903   -175.598293                    
V 10  12650.301535  14701.917561 -22479.500385     -0.015623                    
P 11  -2143.082508  19915.855170 -17917.734814   -579.401326                    
V 11 -18944.646520  11535.732693  15685.618475     -0.025517                    
P 12  -7448.687215 -20966.859516 -14771.666240    294.425935                    
V 12  14003.196159  12061.626752 -24128.806093      0.031554                    
P 13  12781.061649 -21984.323617   7740.046872   -115.989674                    
V 13  -1074.503392  10150.684550  29926.794745     -0.033326                    
P 14 -15596.411996   1267.515789 -21198.461988     62.213330                    
V 14   7071.250397 -26571.853653  -6866.343652     -0.028106                    
P 15   3041.223530 -26167.044428  -1586.030946   -250.222795                    
V 15   4195.315402  -1281.728889  31263.706071     -0.021704                    
P 16  -8933.695927  11574.626906  22074.238324   -127.404567                    
V 16 -19906.489303 -19921.953470   2744.067434      0.037717                    
P 17  15282.785641   -909.130138 -21386.848691   -172.022475                    
V 17  -6409.180325  27103.337165  -5854.867493     -0.017743                    
P 18 -21695.596690 -15016.285114  -3716.680884    402.820170                    
V 18  -1611.436838  -6254.999345  30275.594271      0.029269                    
P 19  -7849.772091  25102.267086     39.926209   -510.941558                    
V 19  -2724.985451  -1143.210221  32265.325561     -0.011415                    
P 20   5047.231624 -15723.570419  20640.967134    321.629421                    
V 20  21667.365663  15658.313499   6667.773099      0.036495                    
P 21 -18924.569850  -7519.242902  17935.279051   -447.674067                    
V 21  19642.884200  -8557.096239  17488.175417     -0.035419                    
P 22 -21982.256703  -5077.688161 -13918.138937    352.211569                    
V 22 -11753.998803 -14082.112698  23131.267467      0.039800                    
P 23   2045.320649  24363.945871   9954.806656   -109.483604                    
V 23  -5727.966883  11652.588308 -28185.239556     -0.024549                    
P 24   1366.559640 -16232.478239 -20990.005416    -48.565241                    
V 24  25438.521882  -7889.808983   7914.657990     -0.006346                    
P 25 -17681.466857 -19545.767874  -4050.554104    -30.985658                    
V 25   5099.962669   1786.231844 -31480.334547     -0.038696                    
P 26 -17051.493784   3566.289427  20040.567984     30.188992                    
V 26 -18255.098086 -17794.903773 -12353.469441      0.013040                    
P 27 -12178.702318  20696.846637  11202.758274     73.195410                    
V 27    624.139089 -14455.566133  27456.576979      0.026849                    
P 28  21048.974184  11176.976678 -11195.732177    441.035105                    
V 28   9229.483182  12084.692661  27805.144894      0.025571                    
P 29  -6270.420474 -19907.568459  16481.526764    611.560085                    
V 29   6897.546209 -19718.278572 -21172.779889      0.022702                    
P 30  23985.956439   2270.954455  11241.600460    -57.050449                    
V 30 -13266.319212   5842.800642  27031.225336      0.054556                    
P 31 -25583.589991   7799.142913    503.293970    315.397696                    
V 31  -1038.572029  -1860.706701 -31833.347493     -0.011062                    
P 32  -3231.980484  17459.931293 -19924.417817   -146.753989                    
V 32 -17997.144324 -17604.878365 -11981.993245      0.096488                    
EOF
